[{"OBJECT_NAME":"CBERS 4A","OBJECT_ID":"2019-093E","EPOCH":"2026-03-09T22:45:31.017888","MEAN_MOTION":14.81577142,"ECCENTRICITY":0.00028121,"INCLINATION":97.7589,"RA_OF_ASC_NODE":139.3418,"ARG_OF_PERICENTER":122.1597,"MEAN_ANOMALY":237.989,"EPHEMERIS_TYPE":0,"CLASSIFICATION_TYPE":"U","NORAD_CAT_ID":44883,"ELEMENT_SET_NO":999,"REV_AT_EPOCH":33638,"BSTAR":0.00022932403,"MEAN_MOTION_DOT":1.75e-5,"MEAN_MOTION_DDOT":0},{"OBJECT_NAME":"KUIPER-00245","OBJECT_ID":"2025-301T","EPOCH":"2026-03-09T08:04:13.428192","MEAN_MOTION":14.79898157,"ECCENTRICITY":4.283e-5,"INCLINATION":51.9025,"RA_OF_ASC_NODE":84.6907,"ARG_OF_PERICENTER":68.118,"MEAN_ANOMALY":291.9828,"EPHEMERIS_TYPE":0,"CLASSIFICATION_TYPE":"U","NORAD_CAT_ID":67150,"ELEMENT_SET_NO":999,"REV_AT_EPOCH":1343,"BSTAR":0.0005764726,"MEAN_MOTION_DOT":4.173e-5,"MEAN_MOTION_DDOT":0}]
